[{"OBJECT_NAME":"EDISON-1","OBJECT_ID":"2025-009B","EPOCH":"2026-03-09T19:16:13.822464","MEAN_MOTION":15.29042904,"ECCENTRICITY":0.00043285,"INCLINATION":97.4042,"RA_OF_ASC_NODE":151.6286,"ARG_OF_PERICENTER":306.4185,"MEAN_ANOMALY":53.6655,"EPHEMERIS_TYPE":0,"CLASSIFICATION_TYPE":"U","NORAD_CAT_ID":62610,"ELEMENT_SET_NO":999,"REV_AT_EPOCH":6375,"BSTAR":0.00052814963,"MEAN_MOTION_DOT":0.00014835,"MEAN_MOTION_DDOT":0},{"OBJECT_NAME":"STARLINK-35513","OBJECT_ID":"2025-225W","EPOCH":"2026-03-09T13:04:57.470304","MEAN_MOTION":15.30176238,"ECCENTRICITY":0.00010752,"INCLINATION":53.1585,"RA_OF_ASC_NODE":166.5137,"ARG_OF_PERICENTER":81.9087,"MEAN_ANOMALY":278.2036,"EPHEMERIS_TYPE":0,"CLASSIFICATION_TYPE":"U","NORAD_CAT_ID":65930,"ELEMENT_SET_NO":999,"REV_AT_EPOCH":2438,"BSTAR":0.00084879455,"MEAN_MOTION_DOT":0.00024845,"MEAN_MOTION_DDOT":0}]
